CCSDS_OEM_VERS = 1.0
CREATION_DATE  = 2017-05-11T11:44:19
ORIGINATOR     = GMAT USER

META_START
OBJECT_NAME          = MOPSSat_alt_35785_km_RAAN_180_146
OBJECT_ID            = SatId
CENTER_NAME          = Earth
REF_FRAME            = EME2000
TIME_SYSTEM          = UTC
START_TIME           = 2017-01-01T00:00:00.000
USEABLE_START_TIME   = 2017-01-01T00:00:00.000
USEABLE_STOP_TIME    = 2017-01-02T00:00:00.000
STOP_TIME            = 2017-01-02T00:00:00.000
INTERPOLATION        = Lagrange
INTERPOLATION_DEGREE = 7 
META_STOP


                                                                                   

2017-01-01T09:28:20.000   5.920258875975214e+04  -1.557218376844135e+04  -1.525902800579739e+00   9.036649257928764e-01   1.658634431169812e+00  -1.103261071273306e-04
2017-01-01T09:28:30.000   5.921162026592190e+04  -1.555559607221400e+04  -1.527006201323871e+00   9.026363026429896e-01   1.658904724623569e+00  -1.103540353391908e-04
2017-01-01T09:28:40.000   5.922064148604166e+04  -1.553900567510899e+04  -1.528109881201397e+00   9.016077502644332e-01   1.659174670101720e+00  -1.103819380192940e-04
2017-01-01T09:28:50.000   5.922965242091013e+04  -1.552241258043700e+04  -1.529213839968115e+00   9.005792685685347e-01   1.659444267773226e+00  -1.104098151520687e-04
2017-01-01T09:29:00.000   5.923865307130462e+04  -1.550581679154505e+04  -1.530318077377133e+00   8.995508574689678e-01   1.659713517806172e+00  -1.104376667218828e-04
2017-01-01T09:29:10.000   5.924764343802704e+04  -1.548921831173188e+04  -1.531422593184505e+00   8.985225168765049e-01   1.659982420369156e+00  -1.104654927131865e-04
2017-01-01T09:29:20.000   5.925662352178632e+04  -1.547261714446255e+04  -1.532527387134957e+00   8.974942467123432e-01   1.660250975627755e+00  -1.104932931101485e-04
2017-01-01T09:29:30.000   5.926559332328611e+04  -1.545601329320920e+04  -1.533632458972472e+00   8.964660468982080e-01   1.660519183747163e+00  -1.105210678969271e-04
2017-01-01T09:29:40.000   5.927455284322437e+04  -1.543940676145098e+04  -1.534737808440305e+00   8.954379173563578e-01   1.660787044892171e+00  -1.105488170576688e-04
2017-01-01T09:29:50.000   5.928350208220845e+04  -1.542279755283400e+04  -1.535843435270317e+00   8.944098580194580e-01   1.661054559224640e+00  -1.105765405762451e-04
2017-01-01T09:30:00.000   5.929244104086987e+04  -1.540618567095598e+04  -1.536949339197323e+00   8.933818688172767e-01   1.661321726906919e+00  -1.106042384366081e-04
2017-01-01T09:30:10.000   5.930136971981906e+04  -1.538957111945101e+04  -1.538055519953448e+00   8.923539496819279e-01   1.661588548100502e+00  -1.106319106226507e-04
2017-01-01T09:30:20.000   5.931028811984674e+04  -1.537295390161471e+04  -1.539161977293089e+00   8.913261005246728e-01   1.661855022972040e+00  -1.106595571188299e-04
2017-01-01T09:30:30.000   5.931919624172235e+04  -1.535633402077908e+04  -1.540268710967949e+00   8.902983212591187e-01   1.662121151687321e+00  -1.106871779095433e-04
2017-01-01T09:30:40.000   5.932809408623985e+04  -1.533971148022776e+04  -1.541375720732683e+00   8.892706117959732e-01   1.662386934412640e+00  -1.107147729792697e-04
2017-01-01T09:30:50.000   5.933698165410102e+04  -1.532308628341101e+04  -1.542483006330594e+00   8.882429720563632e-01   1.662652371311304e+00  -1.107423423122088e-04
2017-01-01T09:31:00.000   5.934585894600253e+04  -1.530645843378625e+04  -1.543590567504242e+00   8.872154019619443e-01   1.662917462546239e+00  -1.107698858925504e-04
2017-01-01T09:31:10.000   5.935472596263525e+04  -1.528982793481785e+04  -1.544698403995455e+00   8.861879014349043e-01   1.663182208279978e+00  -1.107974037044721e-04
2017-01-01T09:31:20.000   5.936358270460054e+04  -1.527319479013748e+04  -1.545806515534642e+00   8.851604704078329e-01   1.663446608672150e+00  -1.108248957318789e-04
2017-01-01T09:31:30.000   5.937242917252358e+04  -1.525655900332833e+04  -1.546914901855179e+00   8.841331088104240e-01   1.663710663882872e+00  -1.108523619587560e-04
2017-01-01T09:31:40.000   5.938126536700783e+04  -1.523992057801170e+04  -1.548023562687636e+00   8.831058165748160e-01   1.663974374071384e+00  -1.108798023690267e-04
2017-01-01T09:31:50.000   5.939009128883763e+04  -1.522327951746522e+04  -1.549132497785211e+00   8.820785936120197e-01   1.664237739402102e+00  -1.109072169471819e-04
2017-01-01T09:32:00.000   5.939890693877490e+04  -1.520663582500558e+04  -1.550241706898242e+00   8.810514398355491e-01   1.664500760038545e+00  -1.109346056776489e-04
2017-01-01T09:32:10.000   5.940771231761173e+04  -1.518998950388976e+04  -1.551351189780775e+00   8.800243551553232e-01   1.664763436144907e+00  -1.109619685449546e-04
2017-01-01T09:32:20.000   5.941650742602866e+04  -1.517334055758049e+04  -1.552460946172887e+00   8.789973394940704e-01   1.665025767881822e+00  -1.109893055332853e-04
2017-01-01T09:32:30.000   5.942529226471177e+04  -1.515668898952730e+04  -1.553570975815270e+00   8.779703927737906e-01   1.665287755409873e+00  -1.110166166268505e-04
2017-01-01T09:32:40.000   5.943406683432654e+04  -1.514003480321528e+04  -1.554681278445978e+00   8.769435149187759e-01   1.665549398888796e+00  -1.110439018098015e-04
2017-01-01T09:32:50.000   5.944283113552567e+04  -1.512337800215209e+04  -1.555791853801296e+00   8.759167058547840e-01   1.665810698477724e+00  -1.110711610662555e-04
2017-01-01T09:33:00.000   5.945158516895694e+04  -1.510671858985112e+04  -1.556902701616859e+00   8.748899655080227e-01   1.666071654335426e+00  -1.110983943803203e-04
2017-01-01T09:33:10.000   5.946032893526696e+04  -1.509005656982556e+04  -1.558013821628051e+00   8.738632938047766e-01   1.666332266620401e+00  -1.111256017361054e-04
2017-01-01T09:33:20.000   5.946906243513220e+04  -1.507339194552890e+04  -1.559125213573972e+00   8.728366906677337e-01   1.666592535491825e+00  -1.111527831178197e-04
2017-01-01T09:33:30.000   5.947778566923818e+04  -1.505672472039449e+04  -1.560236877194798e+00   8.718101560184370e-01   1.666852461108913e+00  -1.111799385097053e-04
2017-01-01T09:33:40.000   5.948649863827920e+04  -1.504005489783567e+04  -1.561348812231780e+00   8.707836897772829e-01   1.667112043630924e+00  -1.112070678960380e-04
2017-01-01T09:33:50.000   5.949520134297906e+04  -1.502338248120583e+04  -1.562461018429902e+00   8.697572918610775e-01   1.667371283217767e+00  -1.112341712611911e-04
2017-01-01T09:34:00.000   5.950389378405987e+04  -1.500670747385818e+04  -1.563573495533905e+00   8.687309621867048e-01   1.667630180029081e+00  -1.112612485895388e-04
2017-01-01T09:34:10.000   5.951257596223925e+04  -1.499002987915170e+04  -1.564686243287872e+00   8.677047006714966e-01   1.667888734224148e+00  -1.112882998654467e-04
2017-01-01T09:34:20.000   5.952124787822094e+04  -1.497334970046767e+04  -1.565799261434148e+00   8.666785072342587e-01   1.668146945961609e+00  -1.113153250732436e-04
2017-01-01T09:34:30.000   5.952990953268854e+04  -1.495666694122318e+04  -1.566912549712421e+00   8.656523817960866e-01   1.668404815399288e+00  -1.113423241972013e-04
2017-01-01T09:34:40.000   5.953856092633087e+04  -1.493998160482194e+04  -1.568026107863012e+00   8.646263242773493e-01   1.668662342694941e+00  -1.113692972216137e-04
2017-01-01T09:34:50.000   5.954720205972882e+04  -1.492329369487445e+04  -1.569139935612171e+00   8.636003346112027e-01   1.668919528002889e+00  -1.113962441304436e-04
2017-01-01T09:35:00.000   5.955583293349264e+04  -1.490660321493132e+04  -1.570254032689883e+00   8.625744127272127e-01   1.669176371478110e+00  -1.114231649077510e-04
2017-01-01T09:35:10.000   5.956445354821063e+04  -1.488991016858238e+04  -1.571368398823257e+00   8.615485585574457e-01   1.669432873274706e+00  -1.114500595375335e-04
2017-01-01T09:35:20.000   5.957306390464781e+04  -1.487321455907278e+04  -1.572483033762141e+00   8.605227720128714e-01   1.669689033551812e+00  -1.114769280043453e-04
2017-01-01T09:35:30.000   5.958166400354762e+04  -1.485651638968587e+04  -1.573597937253578e+00   8.594970530069025e-01   1.669944852467707e+00  -1.115037702926799e-04
2017-01-01T09:35:40.000   5.959025384567719e+04  -1.483981566365658e+04  -1.574713109047579e+00   8.584714014500574e-01   1.670200330181152e+00  -1.115305863871098e-04
2017-01-01T09:35:50.000   5.959883343171464e+04  -1.482311238438729e+04  -1.575828548882722e+00   8.574458172632550e-01   1.670455466848036e+00  -1.115573762719363e-04
2017-01-01T09:36:00.000   5.960740276233305e+04  -1.480640655528764e+04  -1.576944256496839e+00   8.564203003679431e-01   1.670710262623879e+00  -1.115841399314504e-04
2017-01-01T09:36:10.000   5.961596183819999e+04  -1.478969817977438e+04  -1.578060231627026e+00   8.553948506861012e-01   1.670964717663818e+00  -1.116108773499319e-04
2017-01-01T09:36:20.000   5.962451065989651e+04  -1.477298726143236e+04  -1.579176473998883e+00   8.543694681500918e-01   1.671218832120198e+00  -1.116375885113956e-04
2017-01-01T09:36:30.000   5.963304922802667e+04  -1.475627380379787e+04  -1.580292983340995e+00   8.533441526893901e-01   1.671472606145835e+00  -1.116642733999341e-04
2017-01-01T09:36:40.000   5.964157754317435e+04  -1.473955781044389e+04  -1.581409759379234e+00   8.523189042358098e-01   1.671726039892719e+00  -1.116909319995826e-04
2017-01-01T09:36:50.000   5.965009560609565e+04  -1.472283928460295e+04  -1.582526801861955e+00   8.512937227003707e-01   1.671979133517743e+00  -1.117175642949202e-04
2017-01-01T09:37:00.000   5.965860341752622e+04  -1.470611822954428e+04  -1.583644110534804e+00   8.502686079964333e-01   1.672231887176975e+00  -1.117441702704683e-04
2017-01-01T09:37:10.000   5.966710097822521e+04  -1.468939464848860e+04  -1.584761685146406e+00   8.492435600344674e-01   1.672484301026959e+00  -1.117707499108270e-04
2017-01-01T09:37:20.000   5.967558828886349e+04  -1.467266854482437e+04  -1.585879525433928e+00   8.482185787353366e-01   1.672736375221400e+00  -1.117973032003271e-04
